ONEWEB-0055             
1 45443U 20020V   21128.72294028 -.00023783  00000-0 -67137-1 0  9992
2 45443  87.8958  31.8930 0001698  76.9765 283.1553 13.11596052 58121
ONEWEB-0093             
1 45444U 20020W   21128.69877453  .00031268  00000-0  88144-1 0  9994
2 45444  87.8948  31.9576 0001989  70.9016 289.2327 13.11219297 58189
ONEWEB-0029             
1 45445U 20020X   21128.26264318  .00009660  00000-0  27224-1 0  9991
2 45445  87.8950  32.0217 0002462  78.3674 281.7730 13.11338695 58107
ONEWEB-0068             
1 45446U 20020Y   21128.76680403 -.00000274  00000-0 -80608-3 0  9995
2 45446  87.8948  31.9430 0001327  74.9368 285.1907 13.11683678 58110
ONEWEB-0046             
1 45447U 20020Z   21128.45683087 -.00001260  00000-0 -35909-2 0  9992
2 45447  87.8950  32.0080 0001973  71.5832 288.5510 13.11408584 58087
ONEWEB-0063             
1 45448U 20020AA  21128.71624391 -.00029518  00000-0 -83395-1 0  9992
2 45448  87.8945  31.9639 0002199  57.2236 302.9103 13.11576431 58198
ONEWEB-0019             
1 45449U 20020AB  21127.77671250 -.00000108  00000-0 -33908-3 0  9995
2 45449  87.8953  32.1163 0001931  80.4364 279.6982 13.11421062 57919
ONEWEB-0094             
1 45450U 20020AC  21128.45073341  .00000008  00000-0 -12190-4 0  9999
2 45450  87.9634  16.8019 0011680 306.8946  53.1121 13.28316597 60604
ONEWEB-0087             
1 45451U 20020AD  21128.80110054  .00000455  00000-0  12496-2 0  9994
2 45451  87.8954  31.9367 0001803  78.3464 281.7866 13.11257673 58103
ONEWEB-0082             
1 45452U 20020AE  21128.80351359  .00005932  00000-0  16687-1 0  9990
2 45452  87.8944  31.9011 0001410  85.1563 274.9726 13.11438626 58196
ONEWEB-0050             
1 45453U 20020AF  21128.19625508  .00000861  00000-0  76629-4 0  9994
2 45453  87.5477   8.2290 0023602 241.8787 118.0059 14.94594855 61737
ONEWEB-0034             
1 45454U 20020AG  21127.75272872 -.00000377  00000-0 -10995-2 0  9994
2 45454  87.8944  32.1354 0001834  71.4865 288.6462 13.11418699 57965
ONEWEB-0060             
1 45455U 20020AH  21128.44811263 -.00000516  00000-0 -14928-2 0  9990
2 45455  87.8949  31.9926 0001903  76.1139 284.0201 13.11418209 58022
ONEWEB-0086             
1 45456U 20020AJ  21128.54384134  .00032707  00000-0  92283-1 0  9998
2 45456  87.8949  31.9730 0001688  70.7361 289.3949 13.11149355 58089
ONEWEB-0088             
1 45457U 20020AK  21128.44156435 -.00000367  00000-0 -10716-2 0  9990
2 45457  87.8941  32.0229 0001925  70.0125 290.1210 13.11410579 58015
ONEWEB-0102             
1 47258U 20100A   21127.91668981  .00003401  00000-0  94924-2 0  9998
2 47258  87.8960   1.7844 0002287 103.2425 212.8209 13.11889824 19937
ONEWEB-0109             
1 47259U 20100B   21127.91668981  .00003602  00000-0  99744-2 0  9997
2 47259  87.8929   1.6527 0001880  97.5793 165.3301 13.12431794 19767
ONEWEB-0110             
1 47260U 20100C   21127.91668981  .00003184  00000-0  88116-2 0  9995
2 47260  87.8965   1.6862 0001556  99.4301  63.3781 13.12445679 19932
ONEWEB-0111             
1 47261U 20100D   21127.91668981  .00014282  00000-0  39647-1 0  9991
2 47261  87.9073   1.6913 0002204  99.5938 272.8955 13.12365726 19764
ONEWEB-0114             
1 47262U 20100E   21127.91668981  .00003483  00000-0  96457-2 0  9996
2 47262  87.8898   1.6530 0001985  91.3657 131.4546 13.12429647 19722
ONEWEB-0117             
1 47263U 20100F   21127.91668981  .00003455  00000-0  95660-2 0  9991
2 47263  87.8930   1.7313 0001725  88.7499 163.9359 13.12439484 19739
ONEWEB-0118             
1 47264U 20100G   21127.91668981  .00003124  00000-0  86467-2 0  9990
2 47264  87.8951   1.7147 0001954  88.0177  34.6836 13.12433650 19933
ONEWEB-0119             
1 47265U 20100H   21128.91667824 -.00011749  00000-0 -32742-1 0  9997
2 47265  87.9009   1.5852 0002603 101.2090 283.7257 13.12426887 20035
ONEWEB-0120             
1 47266U 20100J   21128.91667824  .00000013  00000-0  00000+0 0  9998
2 47266  87.8899   1.4271 0003981 106.5864 103.1670 13.13236024 20063
ONEWEB-0121             
1 47267U 20100K   21128.91667824  .00005091  00000-0  13275-1 0  9990
2 47267  87.9115   1.4369 0001470 114.0185  83.7407 13.16594607 19971
ONEWEB-0122             
1 47268U 20100L   21127.91668981  .00003535  00000-0  97879-2 0  9999
2 47268  87.8950   1.7035 0001902  85.8522 216.8936 13.12446790 19758
ONEWEB-0123             
1 47269U 20100M   21128.16668981 -.00007182  00000-0 -20028-1 0  9993
2 47269  87.8972   1.6898 0001671  85.1478 347.8674 13.12395428 19929
ONEWEB-0124             
1 47270U 20100N   21127.91668981  .00003536  00000-0  94524-2 0  9997
2 47270  87.8934   1.7278 0001308 102.0329 275.8836 13.14839969 19771
ONEWEB-0125             
1 47271U 20100P   21127.91668981  .00003741  00000-0  93473-2 0  9998
2 47271  87.9190   1.6832 0002540  99.0389 250.3867 13.19449777 19830
ONEWEB-0126             
1 47272U 20100Q   21127.91668981  .00003423  00000-0  94762-2 0  9998
2 47272  87.8968   1.7862 0001363  94.6303 288.0978 13.12443359 19908
ONEWEB-0127             
1 47273U 20100R   21128.50002315  .00045340  00000-0  12257+0 0  9998
2 47273  87.8938   1.6067 0002437 128.0527 292.7337 13.13992861 20007
ONEWEB-0128             
1 47274U 20100S   21127.91668981  .00003197  00000-0  88489-2 0  9997
2 47274  87.8956   1.6992 0001545  94.4171   8.9572 13.12443933 19955
ONEWEB-0129             
1 47275U 20100T   21127.91668981  .00003453  00000-0  95537-2 0  9995
2 47275  87.8972   1.5950 0001841  84.6695  99.3244 13.12474991 19888
ONEWEB-0130             
1 47276U 20100U   21127.91668981  .00003420  00000-0  94678-2 0  9995
2 47276  87.8924   1.6747 0001897  92.5904 330.4069 13.12441603 19847
ONEWEB-0131             
1 47277U 20100V   21127.91668981  .00003394  00000-0  93966-2 0  9995
2 47277  87.8933   1.6200 0001672  91.9829 350.5756 13.12441546 19888
ONEWEB-0132             
1 47278U 20100W   21127.91668981  .00003390  00000-0  93836-2 0  9998
2 47278  87.8965   1.7842 0002014  83.2431 199.5711 13.12444558 19788
ONEWEB-0133             
1 47279U 20100X   21127.91668981  .00003493  00000-0  98792-2 0  9999
2 47279  87.8980   1.6348 0001936  83.6424 139.8311 13.10976296 19942
ONEWEB-0134             
1 47280U 20100Y   21128.50002315 -.00012977  00000-0 -36158-1 0  9996
2 47280  87.8952   1.6050 0002092  83.6721 153.7845 13.12443482 19997
ONEWEB-0135             
1 47281U 20100Z   21127.91668981  .00003140  00000-0  86894-2 0  9991
2 47281  87.8946   1.6993 0001775  98.8397  53.9557 13.12436753 19940
ONEWEB-0136             
1 47282U 20100AA  21128.91667824  .00004907  00000-0  13570-1 0  9990
2 47282  87.8971   1.4255 0000781 104.8838 349.1742 13.12578730 19995
ONEWEB-0137             
1 47283U 20100AB  21127.91668981  .00003318  00000-0  91812-2 0  9996
2 47283  87.8986   1.7878 0002029  86.2684 147.1767 13.12471131 19771
ONEWEB-0138             
1 47284U 20100AC  21128.91667824  .00021596  00000-0  59900-1 0  9992
2 47284  87.9002   1.5685 0002096 120.7667 274.0179 13.12391817 19987
ONEWEB-0139             
1 47285U 20100AD  21127.91668981  .00003102  00000-0  85856-2 0  9990
2 47285  87.8987   1.7243 0001482  91.2550  41.4450 13.12439803 19933
ONEWEB-0140             
1 47286U 20100AE  21128.50002315  .00042678  00000-0  11808+0 0  9994
2 47286  87.8970   1.6105 0001614 101.1918 165.9369 13.12426075 19969
ONEWEB-0141             
1 47287U 20100AF  21127.91668981  .00003252  00000-0  90037-2 0  9995
2 47287  87.8943   1.7634 0001800  93.4132 339.4830 13.12429626 19872
ONEWEB-0142             
1 47288U 20100AG  21127.91668981  .00003389  00000-0  93790-2 0  9996
2 47288  87.8981   1.8001 0001902  89.9157 233.0053 13.12456299 19876
ONEWEB-0143             
1 47289U 20100AH  21128.91667824  .00005181  00000-0  14357-1 0  9996
2 47289  87.8987   1.4406 0002426  87.4113 127.5767 13.12453737 19980
ONEWEB-0144             
1 47290U 20100AJ  21127.91668981  .00003637  00000-0  10070-1 0  9994
2 47290  87.8928   1.6379 0001465  82.7168 209.9834 13.12441795 19776
ONEWEB-0145             
1 47291U 20100AK  21128.16668981 -.00008178  00000-0 -22786-1 0  9997
2 47291  87.8963   1.6571 0001791  94.6257  98.6825 13.12448386 20007
ONEWEB-0146             
1 47292U 20100AL  21128.91667824  .00004604  00000-0  12809-1 0  9999
2 47292  87.8945   1.5596 0003605  89.0427  67.1783 13.12156640 20011
ONEWEB-0147             
1 47293U 20100AM  21127.91668981  .00003449  00000-0  95479-2 0  9995
2 47293  87.8976   1.7226 0001621  88.8221 154.1955 13.12453295 19778
ONEWEB-0115             
1 48042U 21025A   21128.83349537 -.01453650  00000-0 -15892+0 0  9994
2 48042  87.5018 334.5861 0008793 106.0542 268.2336 14.91048797  8114
ONEWEB-0152             
1 48043U 21025B   21128.83349537 -.01373798  00000-0 -15702+0 0  9999
2 48043  87.4831 334.6179 0011954  96.9268 195.7766 14.89583161  8099
ONEWEB-0153             
1 48044U 21025C   21128.83349537 -.01431905  00000-0 -16601+0 0  9994
2 48044  87.4744 334.6531 0012119 117.3073 267.6062 14.88609367  8084
ONEWEB-0154             
1 48045U 21025D   21128.83349537 -.01472750  00000-0 -22011+0 0  9990
2 48045  87.4391 334.6816 0009049 107.0795 145.7284 14.78270664  8089
ONEWEB-0116             
1 48046U 21025E   21128.75001157 -.01507659  00000-0 -16421+0 0  9990
2 48046  87.5052 334.6122 0009271 102.7875 150.0624 14.91307684  8101
ONEWEB-0150             
1 48047U 21025F   21128.83349537 -.01414272  00000-0 -16763+0 0  9994
2 48047  87.4919 334.6147 0010094  92.6481 324.8344 14.87704517  8094
ONEWEB-0107             
1 48048U 21025G   21128.83349537 -.01463834  00000-0 -20049+0 0  9995
2 48048  87.4598 334.6514 0012948 113.3097 150.1372 14.81854373  8091
ONEWEB-0101             
1 48049U 21025H   21128.83349537 -.01472663  00000-0 -22758+0 0  9995
2 48049  87.4301 334.6922 0010649  96.9842 356.5397 14.76837876  8066
